STARLINK-36130          
1 66931U 25286G   26068.07736002  .00037248  00000+0  12635-2 0  9997
2 66931  53.1622   1.2527 0000666 111.3589 248.7483 15.30197984 15323
2025-313BD              
1 67299U 25313BD  26068.62968741  .00081010  00000+0  27634-2 0  9995
2 67299  97.3970 145.2850 0007287 333.4514  26.6352 15.30002360 10838
